{
  "type": "FeatureCollection",
  "features": [
    {
      "type": "Feature",
      "properties": {
        "norad_id": 30874,
        "name": "FENGYUN 1C DEB",
        "group": "fengyun-1c-debris",
        "lat": 72.97415353804973,
        "lon": -126.18929771904968,
        "alt_km": 817.2720445056748,
        "timestamp": "2025-12-20T07:33:51.092170+00:00",
        "meta_object_name": "FENGYUN 1C DEB",
        "meta_object_id": "1999-025AXL",
        "meta_epoch": "2025-12-19T00:45:01.403136",
        "meta_mean_motion": 14.1966129,
        "meta_eccentricity": 0.00416905,
        "meta_inclination": 98.4901,
        "meta_ra_of_asc_node": 23.3849,
        "meta_arg_of_pericenter": 22.4565,
        "meta_mean_anomaly": 3.7904,
        "meta_ephemeris_type": 0,
        "meta_classification_type": "U",
        "meta_norad_cat_id": 30874,
        "meta_element_set_no": 999,
        "meta_rev_at_epoch": 97110,
        "meta_bstar": 0.00036442946,
        "meta_mean_motion_dot": 7.35e-06,
        "meta_mean_motion_ddot": 0,
        "tle_line1": "1 30874U 99025AXL 25353.03126624  .00000735  00000+0  36443-3 0  9996",
        "tle_line2": "2 30874  98.4901  23.3849 0041690  22.4565   3.7904 14.19661290971108"
      },
      "geometry": {
        "type": "Point",
        "coordinates": [
          -126.18929771904968,
          72.97415353804973
        ]
      }
    },
    {
      "type": "Feature",
      "properties": {
        "norad_id": 30876,
        "name": "FENGYUN 1C DEB",
        "group": "fengyun-1c-debris",
        "lat": -28.639383989832236,
        "lon": -16.035500334576792,
        "alt_km": 889.4310979384636,
        "timestamp": "2025-12-20T07:33:51.092180+00:00",
        "meta_object_name": "FENGYUN 1C DEB",
        "meta_object_id": "1999-025AXN",
        "meta_epoch": "2025-12-19T06:01:25.261248",
        "meta_mean_motion": 13.99176654,
        "meta_eccentricity": 0.0066307,
        "meta_inclination": 98.8114,
        "meta_ra_of_asc_node": 338.0818,
        "meta_arg_of_pericenter": 259.2928,
        "meta_mean_anomaly": 113.6653,
        "meta_ephemeris_type": 0,
        "meta_classification_type": "U",
        "meta_norad_cat_id": 30876,
        "meta_element_set_no": 999,
        "meta_rev_at_epoch": 95801,
        "meta_bstar": 0.00046854,
        "meta_mean_motion_dot": 6.49e-06,
        "meta_mean_motion_ddot": 0,
        "tle_line1": "1 30876U 99025AXN 25353.25098682  .00000649  00000+0  46854-3 0  9995",
        "tle_line2": "2 30876  98.8114 338.0818 0066307 259.2928 113.6653 13.99176654958016"
      },
      "geometry": {
        "type": "Point",
        "coordinates": [
          -16.035500334576792,
          -28.639383989832236
        ]
      }
    },
    {
      "type": "Feature",
      "properties": {
        "norad_id": 30878,
        "name": "FENGYUN 1C DEB",
        "group": "fengyun-1c-debris",
        "lat": 71.55166089124283,
        "lon": -31.811247559675568,
        "alt_km": 873.2373399475291,
        "timestamp": "2025-12-20T07:33:51.092190+00:00",
        "meta_object_name": "FENGYUN 1C DEB",
        "meta_object_id": "1999-025AXQ",
        "meta_epoch": "2025-12-19T11:31:49.634112",
        "meta_mean_motion": 14.11899957,
        "meta_eccentricity": 0.0039902,
        "meta_inclination": 98.7203,
        "meta_ra_of_asc_node": 354.7698,
        "meta_arg_of_pericenter": 274.9563,
        "meta_mean_anomaly": 238.1317,
        "meta_ephemeris_type": 0,
        "meta_classification_type": "U",
        "meta_norad_cat_id": 30878,
        "meta_element_set_no": 999,
        "meta_rev_at_epoch": 96462,
        "meta_bstar": 0.00045634,
        "meta_mean_motion_dot": 7.97e-06,
        "meta_mean_motion_ddot": 0,
        "tle_line1": "1 30878U 99025AXQ 25353.48043558  .00000797  00000+0  45634-3 0  9993",
        "tle_line2": "2 30878  98.7203 354.7698 0039902 274.9563 238.1317 14.11899957964624"
      },
      "geometry": {
        "type": "Point",
        "coordinates": [
          -31.811247559675568,
          71.55166089124283
        ]
      }
    },
    {
      "type": "Feature",
      "properties": {
        "norad_id": 30879,
        "name": "FENGYUN 1C DEB",
        "group": "fengyun-1c-debris",
        "lat": 47.738843827028944,
        "lon": 42.48897681445286,
        "alt_km": 744.5157403017984,
        "timestamp": "2025-12-20T07:33:51.092200+00:00",
        "meta_object_name": "FENGYUN 1C DEB",
        "meta_object_id": "1999-025AXR",
        "meta_epoch": "2025-12-17T13:30:02.638656",
        "meta_mean_motion": 14.67597309,
        "meta_eccentricity": 0.02014123,
        "meta_inclination": 99.3511,
        "meta_ra_of_asc_node": 208.8996,
        "meta_arg_of_pericenter": 265.2476,
        "meta_mean_anomaly": 92.5699,
        "meta_ephemeris_type": 0,
        "meta_classification_type": "U",
        "meta_norad_cat_id": 30879,
        "meta_element_set_no": 999,
        "meta_rev_at_epoch": 62010,
        "meta_bstar": 0.0029649281,
        "meta_mean_motion_dot": 0.00022884,
        "meta_mean_motion_ddot": 0,
        "tle_line1": "1 30879U 99025AXR 25351.56253054  .00022884  00000+0  29649-2 0  9993",
        "tle_line2": "2 30879  99.3511 208.8996 0201412 265.2476  92.5699 14.67597309620101"
      },
      "geometry": {
        "type": "Point",
        "coordinates": [
          42.48897681445286,
          47.738843827028944
        ]
      }
    },
    {
      "type": "Feature",
      "properties": {
        "norad_id": 30880,
        "name": "FENGYUN 1C DEB",
        "group": "fengyun-1c-debris",
        "lat": -58.94749450299928,
        "lon": -128.71946973848478,
        "alt_km": 827.5127544007564,
        "timestamp": "2025-12-20T07:33:51.092209+00:00",
        "meta_object_name": "FENGYUN 1C DEB",
        "meta_object_id": "1999-025AXS",
        "meta_epoch": "2025-12-19T20:20:12.782688",
        "meta_mean_motion": 14.25639124,
        "meta_eccentricity": 0.0021833,
        "meta_inclination": 98.7947,
        "meta_ra_of_asc_node": 65.7105,
        "meta_arg_of_pericenter": 87.4315,
        "meta_mean_anomaly": 272.9364,
        "meta_ephemeris_type": 0,
        "meta_classification_type": "U",
        "meta_norad_cat_id": 30880,
        "meta_element_set_no": 999,
        "meta_rev_at_epoch": 96815,
        "meta_bstar": 0.00091703051,
        "meta_mean_motion_dot": 2.134e-05,
        "meta_mean_motion_ddot": 0,
        "tle_line1": "1 30880U 99025AXS 25353.84737017  .00002134  00000+0  91703-3 0  9991",
        "tle_line2": "2 30880  98.7947  65.7105 0021833  87.4315 272.9364 14.25639124968153"
      },
      "geometry": {
        "type": "Point",
        "coordinates": [
          -128.71946973848478,
          -58.94749450299928
        ]
      }
    },
    {
      "type": "Feature",
      "properties": {
        "norad_id": 30882,
        "name": "FENGYUN 1C DEB",
        "group": "fengyun-1c-debris",
        "lat": -45.47494659628728,
        "lon": 57.81024430109838,
        "alt_km": 563.2495374099326,
        "timestamp": "2025-12-20T07:33:51.092219+00:00",
        "meta_object_name": "FENGYUN 1C DEB",
        "meta_object_id": "1999-025AXU",
        "meta_epoch": "2025-12-17T10:18:53.495712",
        "meta_mean_motion": 14.86795704,
        "meta_eccentricity": 0.01527867,
        "meta_inclination": 97.9428,
        "meta_ra_of_asc_node": 46.764,
        "meta_arg_of_pericenter": 25.5168,
        "meta_mean_anomaly": 335.3489,
        "meta_ephemeris_type": 0,
        "meta_classification_type": "U",
        "meta_norad_cat_id": 30882,
        "meta_element_set_no": 999,
        "meta_rev_at_epoch": 99724,
        "meta_bstar": 0.00070873756,
        "meta_mean_motion_dot": 7.762e-05,
        "meta_mean_motion_ddot": 0,
        "tle_line1": "1 30882U 99025AXU 25351.42978583  .00007762  00000+0  70874-3 0  9998",
        "tle_line2": "2 30882  97.9428  46.7640 0152786  25.5168 335.3489 14.86795704997242"
      },
      "geometry": {
        "type": "Point",
        "coordinates": [
          57.81024430109838,
          -45.47494659628728
        ]
      }
    },
    {
      "type": "Feature",
      "properties": {
        "norad_id": 30883,
        "name": "FENGYUN 1C DEB",
        "group": "fengyun-1c-debris",
        "lat": 12.397955070520652,
        "lon": -147.22370304363355,
        "alt_km": 771.28766156252,
        "timestamp": "2025-12-20T07:33:51.092229+00:00",
        "meta_object_name": "FENGYUN 1C DEB",
        "meta_object_id": "1999-025AXV",
        "meta_epoch": "2025-12-18T09:15:41.158656",
        "meta_mean_motion": 14.14553661,
        "meta_eccentricity": 0.01121892,
        "meta_inclination": 98.3607,
        "meta_ra_of_asc_node": 29.1166,
        "meta_arg_of_pericenter": 197.735,
        "meta_mean_anomaly": 231.0537,
        "meta_ephemeris_type": 0,
        "meta_classification_type": "U",
        "meta_norad_cat_id": 30883,
        "meta_element_set_no": 999,
        "meta_rev_at_epoch": 96997,
        "meta_bstar": 0.00015881802,
        "meta_mean_motion_dot": 2.84e-06,
        "meta_mean_motion_ddot": 0,
        "tle_line1": "1 30883U 99025AXV 25352.38589304  .00000284  00000+0  15882-3 0  9994",
        "tle_line2": "2 30883  98.3607  29.1166 0112189 197.7350 231.0537 14.14553661969973"
      },
      "geometry": {
        "type": "Point",
        "coordinates": [
          -147.22370304363355,
          12.397955070520652
        ]
      }
    }
  ]
}